NORAD_CAT_ID,OBJECT_NAME,OBJECT_TYPE,EPOCH,MEAN_MOTION,ECCENTRICITY,INCLINATION,RA_OF_ASC_NODE,ARG_OF_PERICENTER,MEAN_ANOMALY,BSTAR,MEAN_MOTION_DOT,MEAN_MOTION_DDOT,TLE_LINE0,TLE_LINE1,TLE_LINE2,SEMIMAJOR_AXIS,PERIOD,APOGEE,PERIGEE,DECAYED
53860.0,STARLINK-4799,PAYLOAD,2024-05-11 22:33:21,15.08714911,0.0001537,53.2183,37.3947,50.618,309.4948,-8.7269e-05,-1.672e-05,0.0,0 STARLINK-4799,1 53860U 22114AU  24132.93982699 -.00001672  00000-0 -87269-4 0  9993,2 53860  53.2183  37.3947 0001537  50.6180 309.4948 15.08714911 92213,6918.263,95.445,541.191,539.064,0.0
53860.0,STARLINK-4799,PAYLOAD,2024-05-12 00:08:44,15.08696988,0.0001266,53.2185,37.0976,81.2163,278.8972,0.0017208,0.00027097,0.0,0 STARLINK-4799,1 53860U 22114AU  24133.00607081  .00027097  00000-0  17208-2 0  9992,2 53860  53.2185  37.0976 0001266  81.2163 278.8972 15.08696988 91920,6918.318,95.447,541.058,539.307,0.0
53860.0,STARLINK-4799,PAYLOAD,2024-05-12 17:38:04,15.08715541,0.0001388,53.2178,33.8263,93.2427,266.8724,0.0015671,0.00024655,0.0,0 STARLINK-4799,1 53860U 22114AU  24133.73477882  .00024655  00000-0  15671-2 0  9995,2 53860  53.2178  33.8263 0001388  93.2427 266.8724 15.08715541 92038,6918.261,95.445,541.086,539.166,0.0
53860.0,STARLINK-4799,PAYLOAD,2024-05-12 22:24:14,15.08800235,0.0001506,53.2185,32.9346,103.1811,256.9349,0.0031035,0.00049397,0.0,0 STARLINK-4799,1 53860U 22114AU  24133.93350632  .00049397  00000-0  31035-2 0  9992,2 53860  53.2185  32.9346 0001506 103.1811 256.9349 15.08800235 92362,6918.002,95.44,540.909,538.825,0.0
53860.0,STARLINK-4799,PAYLOAD,2024-05-13 03:10:24,15.0882187,0.0001488,53.2187,32.0401,112.5136,247.6013,0.0017338,0.00027399,0.0,0 STARLINK-4799,1 53860U 22114AU  24134.13222576  .00027399  00000-0  17338-2 0  9998,2 53860  53.2187  32.0401 0001488 112.5136 247.6013 15.08821870 92093,6917.936,95.439,540.83,538.771,0.0
53860.0,STARLINK-4799,PAYLOAD,2024-05-14 03:01:09,15.08910251,0.0001366,53.2186,27.5804,119.0876,241.0253,0.0024377,0.00038797,0.0,0 STARLINK-4799,1 53860U 22114AU  24135.12580389  .00038797  00000-0  24377-2 0  9992,2 53860  53.2186  27.5804 0001366 119.0876 241.0253 15.08910251 92249,6917.666,95.433,540.476,538.586,0.0
53860.0,STARLINK-4799,PAYLOAD,2024-05-14 09:22:40,15.08900404,4.11e-05,53.218,26.3886,154.1988,205.9025,0.0011235,0.00017667,0.0,0 STARLINK-4799,1 53860U 22114AU  24135.39075103  .00017667  00000-0  11235-2 0  9996,2 53860  53.2180  26.3886 0000411 154.1988 205.9025 15.08900404 92283,6917.696,95.434,539.845,539.276,0.0
53860.0,STARLINK-4799,PAYLOAD,2024-05-14 22:05:44,15.08897614,0.0001407,53.2194,24.0121,107.7903,252.3243,0.00072434,0.00011277,0.0,0 STARLINK-4799,1 53860U 22114AU  24135.92065769  .00011277  00000-0  72434-3 0  9992,2 53860  53.2194  24.0121 0001407 107.7903 252.3243 15.08897614 92660,6917.704,95.434,540.543,538.596,0.0
53860.0,STARLINK-4799,PAYLOAD,2024-05-14 23:41:07,15.08898518,0.0001321,53.2195,23.7143,107.7734,252.3403,0.00061811,9.579e-05,0.0,0 STARLINK-4799,1 53860U 22114AU  24135.98689471  .00009579  00000-0  61811-3 0  9999,2 53860  53.2195  23.7143 0001321 107.7734 252.3403 15.08898518 92378,6917.702,95.434,540.48,538.653,0.0
53860.0,STARLINK-4799,PAYLOAD,2024-05-15 09:13:25,15.08899664,0.0001621,53.2185,21.9274,85.3054,274.8123,1.9454e-06,-2.57e-06,0.0,0 STARLINK-4799,1 53860U 22114AU  24136.38432387 -.00000257  00000-0  19454-5 0  9999,2 53860  53.2185  21.9274 0001621  85.3054 274.8123 15.08899664 92439,6917.698,95.434,540.684,538.442,0.0
53860.0,STARLINK-4799,PAYLOAD,2024-05-15 20:21:07,15.08855775,0.0001172,53.2197,19.8481,94.8274,265.2852,-0.00046601,-7.7e-05,0.0,0 STARLINK-4799,1 53860U 22114AU  24136.84800280 -.00007700  00000-0 -46601-3 0  9994,2 53860  53.2197  19.8481 0001172  94.8274 265.2852 15.08855775 92504,6917.832,95.437,540.508,538.886,0.0
53860.0,STARLINK-4799,PAYLOAD,2024-05-15 21:56:30,15.08856896,0.0001656,53.2185,19.5478,78.8743,281.2436,-0.00031713,-5.334e-05,0.0,0 STARLINK-4799,1 53860U 22114AU  24136.91424322 -.00005334  00000-0 -31713-3 0  9990,2 53860  53.2185  19.5478 0001656  78.8743 281.2436 15.08856896 92819,6917.829,95.436,540.839,538.548,0.0
53860.0,STARLINK-4799,PAYLOAD,2024-05-16 01:07:16,15.08873879,0.000119,53.2188,18.9565,101.2835,258.829,0.00019448,2.811e-05,0.0,0 STARLINK-4799,1 53860U 22114AU  24137.04671829  .00002811  00000-0  19448-3 0  9997,2 53860  53.2188  18.9565 0001190 101.2835 258.8290 15.08873879 92535,6917.777,95.435,540.465,538.819,0.0
53860.0,STARLINK-4799,PAYLOAD,2024-05-16 09:04:12,15.08858148,0.0001931,53.2189,17.4697,79.0371,281.0838,7.9055e-05,9.71e-06,0.0,0 STARLINK-4799,1 53860U 22114AU  24137.37792266  .00000971  00000-0  79055-4 0  9998,2 53860  53.2189  17.4697 0001931  79.0371 281.0838 15.08858148 92589,6917.825,95.436,541.026,538.354,0.0
53860.0,STARLINK-4799,PAYLOAD,2024-05-17 08:55:00,15.08846165,0.0002746,53.2183,13.0086,77.7846,282.3454,0.00035518,5.37e-05,0.0,0 STARLINK-4799,1 53860U 22114AU  24138.37152984  .00005370  00000-0  35518-3 0  9999,2 53860  53.2183  13.0086 0002746  77.7846 282.3454 15.08846165 92735,6917.862,95.437,541.626,537.827,0.0
53860.0,STARLINK-4799,PAYLOAD,2024-05-17 21:38:06,15.0880162,0.0001545,53.2175,10.6294,83.5893,276.5275,0.00053309,8.197e-05,0.0,0 STARLINK-4799,1 53860U 22114AU  24138.90145909  .00008197  00000-0  53309-3 0  9995,2 53860  53.2175  10.6294 0001545  83.5893 276.5275 15.08801620 92815,6917.998,95.44,540.932,538.794,0.0
53860.0,STARLINK-4799,PAYLOAD,2024-05-18 00:48:52,15.08827496,0.0001504,53.2179,10.0348,93.8632,266.2533,0.00065561,0.00010158,0.0,0 STARLINK-4799,1 53860U 22114AU  24139.03393739  .00010158  00000-0  65561-3 0  9999,2 53860  53.2179  10.0348 0001504  93.8632 266.2533 15.08827496 92837,6917.919,95.438,540.824,538.743,0.0
53860.0,STARLINK-4799,PAYLOAD,2024-05-18 08:45:48,15.08841826,0.0001412,53.2174,8.5495,94.9459,265.1694,0.0016198,0.00025586,0.0,0 STARLINK-4799,1 53860U 22114AU  24139.36513906  .00025586  00000-0  16198-2 0  9997,2 53860  53.2174   8.5495 0001412  94.9459 265.1694 15.08841826 93182,6917.875,95.437,540.717,538.763,0.0
53860.0,STARLINK-4799,PAYLOAD,2024-05-18 21:28:51,15.08903498,0.000138,53.2175,6.169,94.1038,266.0111,0.0021966,0.00034905,0.0,0 STARLINK-4799,1 53860U 22114AU  24139.89504078  .00034905  00000-0  21966-2 0  9999,2 53860  53.2175   6.1690 0001380  94.1038 266.0111 15.08903498 92966,6917.686,95.434,540.506,538.597,0.0
53860.0,STARLINK-4799,PAYLOAD,2024-05-19 21:19:39,15.088226,0.0001435,53.2181,1.7082,55.0744,305.0383,0.001818,0.0002875,0.0,0 STARLINK-4799,1 53860U 22114AU  24140.88864944  .00028750  00000-0  18180-2 0  9996,2 53860  53.2181   1.7082 0001435  55.0744 305.0383 15.08822600 93118,6917.934,95.439,540.791,538.806,0.0
53860.0,STARLINK-4799,PAYLOAD,2024-05-20 00:30:25,15.08828377,0.0001517,53.218,1.1138,56.9139,303.1998,0.0021471,0.00034038,0.0,0 STARLINK-4799,1 53860U 22114AU  24141.02113173  .00034038  00000-0  21471-2 0  9997,2 53860  53.2180   1.1138 0001517  56.9139 303.1998 15.08828377 93435,6917.916,95.438,540.83,538.731,0.0
53860.0,STARLINK-4799,PAYLOAD,2024-05-20 21:10:26,15.08859379,0.0001573,53.2187,357.2481,61.4585,298.6565,0.0014032,0.00022126,0.0,0 STARLINK-4799,1 53860U 22114AU  24141.88225108  .00022126  00000-0  14032-2 0  9993,2 53860  53.2187 357.2481 0001573  61.4585 298.6565 15.08859379 93261,6917.821,95.436,540.774,538.598,0.0
53860.0,STARLINK-4799,PAYLOAD,2024-05-21 01:56:35,15.08877006,0.000149,53.2187,356.3569,61.1683,298.9459,0.0017611,0.0002788,0.0,0 STARLINK-4799,1 53860U 22114AU  24142.08096599  .00027880  00000-0  17611-2 0  9994,2 53860  53.2187 356.3569 0001490  61.1683 298.9459 15.08877006 93297,6917.767,95.435,540.663,538.602,0.0
53860.0,STARLINK-4799,PAYLOAD,2024-05-21 19:25:50,15.08843936,0.000137,53.2193,353.0941,75.2635,284.8508,0.00030568,4.581e-05,0.0,0 STARLINK-4799,1 53860U 22114AU  24142.80961207  .00004581  00000-0  30568-3 0  9991,2 53860  53.2193 353.0941 0001370  75.2635 284.8508 15.08843936 93409,6917.868,95.437,540.681,538.786,0.0
53860.0,STARLINK-4799,PAYLOAD,2024-05-22 20:52:01,15.0884081,0.0001381,53.2191,348.3366,77.7132,282.4015,0.00041339,6.297e-05,0.0,0 STARLINK-4799,1 53860U 22114AU  24143.86945754  .00006297  00000-0  41339-3 0  9991,2 53860  53.2191 348.3366 0001381  77.7132 282.4015 15.08840810 93568,6917.878,95.438,540.698,538.788,0.0
53860.0,STARLINK-4799,PAYLOAD,2024-05-23 00:02:47,15.08843754,0.0001354,53.2182,347.7323,71.1206,288.9933,0.00045959,7.035e-05,0.0,0 STARLINK-4799,1 53860U 22114AU  24144.00193613  .00007035  00000-0  45959-3 0  9990,2 53860  53.2182 347.7323 0001354  71.1206 288.9933 15.08843754 93889,6917.869,95.437,540.671,538.797,0.0
53860.0,STARLINK-4799,PAYLOAD,2024-05-23 20:42:48,15.08842046,0.0001585,53.2184,343.8618,62.9823,297.1331,0.00029714,4.444e-05,0.0,0 STARLINK-4799,1 53860U 22114AU  24144.86305781  .00004444  00000-0  29714-3 0  9997,2 53860  53.2184 343.8618 0001585  62.9823 297.1331 15.08842046 93713,6917.874,95.437,540.836,538.643,0.0
53860.0,STARLINK-4799,PAYLOAD,2024-05-24 12:36:39,15.088476,0.0001499,53.2178,340.8976,65.5029,294.612,0.00019601,2.834e-05,0.0,0 STARLINK-4799,1 53860U 22114AU  24145.52545793  .00002834  00000-0  19601-3 0  9995,2 53860  53.2178 340.8976 0001499  65.5029 294.6120 15.08847600 94115,6917.857,95.437,540.759,538.685,0.0
53860.0,STARLINK-4799,PAYLOAD,2024-05-24 22:08:58,15.08850281,0.0001167,53.2175,339.1086,84.2031,275.9095,0.00028354,4.229e-05,0.0,0 STARLINK-4799,1 53860U 22114AU  24145.92289384  .00004229  00000-0  28354-3 0  9995,2 53860  53.2175 339.1086 0001167  84.2031 275.9095 15.08850281 94176,6917.849,95.437,540.521,538.907,0.0
53860.0,STARLINK-4799,PAYLOAD,2024-05-25 20:24:22,15.08840822,0.0001267,53.2166,334.9494,77.4364,282.677,7.3729e-05,8.86e-06,0.0,0 STARLINK-4799,1 53860U 22114AU  24146.85026049  .00000886  00000-0  73729-4 0  9997,2 53860  53.2166 334.9494 0001267  77.4364 282.6770 15.08840822 94014,6917.878,95.438,540.619,538.866,0.0
